[{"OBJECT_NAME":"BEIDOU-3 M10 (C30)","OBJECT_ID":"2018-029B","EPOCH":"2026-03-11T03:46:01.230816","MEAN_MOTION":1.86229238,"ECCENTRICITY":0.00052068,"INCLINATION":54.2796,"RA_OF_ASC_NODE":303.4048,"ARG_OF_PERICENTER":25.3248,"MEAN_ANOMALY":334.7506,"EPHEMERIS_TYPE":0,"CLASSIFICATION_TYPE":"U","NORAD_CAT_ID":43246,"ELEMENT_SET_NO":999,"REV_AT_EPOCH":5405,"BSTAR":0,"MEAN_MOTION_DOT":-4.0e-7,"MEAN_MOTION_DDOT":0},{"OBJECT_NAME":"IRNSS-1I","OBJECT_ID":"2018-035A","EPOCH":"2026-03-14T13:54:18.618624","MEAN_MOTION":1.00272307,"ECCENTRICITY":0.00191412,"INCLINATION":28.9518,"RA_OF_ASC_NODE":75.6565,"ARG_OF_PERICENTER":189.6246,"MEAN_ANOMALY":170.5508,"EPHEMERIS_TYPE":0,"CLASSIFICATION_TYPE":"U","NORAD_CAT_ID":43286,"ELEMENT_SET_NO":999,"REV_AT_EPOCH":2913,"BSTAR":0,"MEAN_MOTION_DOT":9.9e-7,"MEAN_MOTION_DDOT":0},{"OBJECT_NAME":"COSMOS 2527 (756)","OBJECT_ID":"2018-053A","EPOCH":"2026-03-14T07:03:09.493632","MEAN_MOTION":2.13102379,"ECCENTRICITY":0.00096205,"INCLINATION":65.5239,"RA_OF_ASC_NODE":77.0711,"ARG_OF_PERICENTER":246.0472,"MEAN_ANOMALY":113.8919,"EPHEMERIS_TYPE":0,"CLASSIFICATION_TYPE":"U","NORAD_CAT_ID":43508,"ELEMENT_SET_NO":999,"REV_AT_EPOCH":6025,"BSTAR":0,"MEAN_MOTION_DOT":5.9e-7,"MEAN_MOTION_DDOT":0},{"OBJECT_NAME":"BEIDOU-2 IGSO-7 (C16)","OBJECT_ID":"2018-057A","EPOCH":"2026-03-14T15:53:44.118816","MEAN_MOTION":1.00280609,"ECCENTRICITY":0.01006588,"INCLINATION":55.1859,"RA_OF_ASC_NODE":163.8862,"ARG_OF_PERICENTER":236.7866,"MEAN_ANOMALY":122.7872,"EPHEMERIS_TYPE":0,"CLASSIFICATION_TYPE":"U","NORAD_CAT_ID":43539,"ELEMENT_SET_NO":999,"REV_AT_EPOCH":2818,"BSTAR":0,"MEAN_MOTION_DOT":-1.49e-6,"MEAN_MOTION_DDOT":0},{"OBJECT_NAME":"GSAT0221 (GALILEO 25)","OBJECT_ID":"2018-060A","EPOCH":"2026-03-06T23:58:48.751968","MEAN_MOTION":1.70475614,"ECCENTRICITY":0.0005694,"INCLINATION":57.2026,"RA_OF_ASC_NODE":344.543,"ARG_OF_PERICENTER":308.1098,"MEAN_ANOMALY":51.8621,"EPHEMERIS_TYPE":0,"CLASSIFICATION_TYPE":"U","NORAD_CAT_ID":43564,"ELEMENT_SET_NO":999,"REV_AT_EPOCH":4742,"BSTAR":0,"MEAN_MOTION_DOT":-1.03e-6,"MEAN_MOTION_DDOT":0},{"OBJECT_NAME":"GSAT0222 (GALILEO 26)","OBJECT_ID":"2018-060B","EPOCH":"2026-03-06T01:05:30.417216","MEAN_MOTION":1.70475258,"ECCENTRICITY":0.00040842,"INCLINATION":57.206,"RA_OF_ASC_NODE":344.5721,"ARG_OF_PERICENTER":287.9587,"MEAN_ANOMALY":72.0183,"EPHEMERIS_TYPE":0,"CLASSIFICATION_TYPE":"U","NORAD_CAT_ID":43565,"ELEMENT_SET_NO":999,"REV_AT_EPOCH":4745,"BSTAR":0,"MEAN_MOTION_DOT":-1.05e-6,"MEAN_MOTION_DDOT":0},{"OBJECT_NAME":"GSAT0219 (GALILEO 23)","OBJECT_ID":"2018-060C","EPOCH":"2026-03-08T00:37:58.248768","MEAN_MOTION":1.70474822,"ECCENTRICITY":0.0004318,"INCLINATION":57.205,"RA_OF_ASC_NODE":344.5202,"ARG_OF_PERICENTER":344.0327,"MEAN_ANOMALY":15.9782,"EPHEMERIS_TYPE":0,"CLASSIFICATION_TYPE":"U","NORAD_CAT_ID":43566,"ELEMENT_SET_NO":999,"REV_AT_EPOCH":4746,"BSTAR":0,"MEAN_MOTION_DOT":-1.01e-6,"MEAN_MOTION_DDOT":0},{"OBJECT_NAME":"GSAT0220 (GALILEO 24)","OBJECT_ID":"2018-060D","EPOCH":"2026-02-27T10:45:41.962176","MEAN_MOTION":1.70475159,"ECCENTRICITY":0.0005301,"INCLINATION":57.2075,"RA_OF_ASC_NODE":344.7516,"ARG_OF_PERICENTER":308.5821,"MEAN_ANOMALY":51.3768,"EPHEMERIS_TYPE":0,"CLASSIFICATION_TYPE":"U","NORAD_CAT_ID":43567,"ELEMENT_SET_NO":999,"REV_AT_EPOCH":4730,"BSTAR":0,"MEAN_MOTION_DOT":-1.02e-6,"MEAN_MOTION_DDOT":0},{"OBJECT_NAME":"BEIDOU-3 M5 (C23)","OBJECT_ID":"2018-062A","EPOCH":"2026-03-12T10:55:13.474848","MEAN_MOTION":1.86228824,"ECCENTRICITY":0.00023887,"INCLINATION":54.0877,"RA_OF_ASC_NODE":185.5927,"ARG_OF_PERICENTER":304.9134,"MEAN_ANOMALY":55.0505,"EPHEMERIS_TYPE":0,"CLASSIFICATION_TYPE":"U","NORAD_CAT_ID":43581,"ELEMENT_SET_NO":999,"REV_AT_EPOCH":5183,"BSTAR":0,"MEAN_MOTION_DOT":-1.1e-7,"MEAN_MOTION_DDOT":0},{"OBJECT_NAME":"BEIDOU-3 M6 (C24)","OBJECT_ID":"2018-062B","EPOCH":"2026-03-14T11:10:45.623712","MEAN_MOTION":1.86227846,"ECCENTRICITY":0.00058914,"INCLINATION":54.0871,"RA_OF_ASC_NODE":185.5136,"ARG_OF_PERICENTER":41.2236,"MEAN_ANOMALY":318.8045,"EPHEMERIS_TYPE":0,"CLASSIFICATION_TYPE":"U","NORAD_CAT_ID":43582,"ELEMENT_SET_NO":999,"REV_AT_EPOCH":5187,"BSTAR":0,"MEAN_MOTION_DOT":-1.3e-7,"MEAN_MOTION_DDOT":0},{"OBJECT_NAME":"BEIDOU-3 M12 (C26)","OBJECT_ID":"2018-067A","EPOCH":"2026-03-12T06:09:12.634272","MEAN_MOTION":1.8622785,"ECCENTRICITY":0.00083688,"INCLINATION":54.1816,"RA_OF_ASC_NODE":184.3275,"ARG_OF_PERICENTER":38.978,"MEAN_ANOMALY":321.0706,"EPHEMERIS_TYPE":0,"CLASSIFICATION_TYPE":"U","NORAD_CAT_ID":43602,"ELEMENT_SET_NO":999,"REV_AT_EPOCH":5131,"BSTAR":0,"MEAN_MOTION_DOT":-1.1e-7,"MEAN_MOTION_DDOT":0},{"OBJECT_NAME":"BEIDOU-3 M11 (C25)","OBJECT_ID":"2018-067B","EPOCH":"2026-03-12T09:23:16.871136","MEAN_MOTION":1.86227337,"ECCENTRICITY":0.0004938,"INCLINATION":54.1791,"RA_OF_ASC_NODE":184.2861,"ARG_OF_PERICENTER":32.5137,"MEAN_ANOMALY":327.5049,"EPHEMERIS_TYPE":0,"CLASSIFICATION_TYPE":"U","NORAD_CAT_ID":43603,"ELEMENT_SET_NO":999,"REV_AT_EPOCH":5134,"BSTAR":0,"MEAN_MOTION_DOT":-1.2e-7,"MEAN_MOTION_DDOT":0},{"OBJECT_NAME":"BEIDOU-3 M13 (C32)","OBJECT_ID":"2018-072A","EPOCH":"2026-03-12T21:12:47.415168","MEAN_MOTION":1.86231253,"ECCENTRICITY":0.00090341,"INCLINATION":56.541,"RA_OF_ASC_NODE":65.8356,"ARG_OF_PERICENTER":308.7444,"MEAN_ANOMALY":51.1959,"EPHEMERIS_TYPE":0,"CLASSIFICATION_TYPE":"U","NORAD_CAT_ID":43622,"ELEMENT_SET_NO":999,"REV_AT_EPOCH":5086,"BSTAR":0,"MEAN_MOTION_DOT":9.0e-8,"MEAN_MOTION_DDOT":0},{"OBJECT_NAME":"BEIDOU-3 M14 (C33)","OBJECT_ID":"2018-072B","EPOCH":"2026-03-12T17:59:02.777280","MEAN_MOTION":1.86231274,"ECCENTRICITY":0.00065754,"INCLINATION":56.5428,"RA_OF_ASC_NODE":65.8343,"ARG_OF_PERICENTER":329.8398,"MEAN_ANOMALY":30.1432,"EPHEMERIS_TYPE":0,"CLASSIFICATION_TYPE":"U","NORAD_CAT_ID":43623,"ELEMENT_SET_NO":999,"REV_AT_EPOCH":5085,"BSTAR":0,"MEAN_MOTION_DOT":8.0e-8,"MEAN_MOTION_DDOT":0},{"OBJECT_NAME":"BEIDOU-3 M16 (C35)","OBJECT_ID":"2018-078A","EPOCH":"2026-03-14T12:24:24.698592","MEAN_MOTION":1.86232405,"ECCENTRICITY":0.00084623,"INCLINATION":54.1752,"RA_OF_ASC_NODE":303.3057,"ARG_OF_PERICENTER":32.6452,"MEAN_ANOMALY":327.4645,"EPHEMERIS_TYPE":0,"CLASSIFICATION_TYPE":"U","NORAD_CAT_ID":43647,"ELEMENT_SET_NO":999,"REV_AT_EPOCH":5039,"BSTAR":0,"MEAN_MOTION_DOT":-1.7e-7,"MEAN_MOTION_DDOT":0},{"OBJECT_NAME":"BEIDOU-3 M15 (C34)","OBJECT_ID":"2018-078B","EPOCH":"2026-03-14T02:37:23.272896","MEAN_MOTION":1.86232472,"ECCENTRICITY":0.00054077,"INCLINATION":54.1714,"RA_OF_ASC_NODE":303.3209,"ARG_OF_PERICENTER":39.9151,"MEAN_ANOMALY":320.1811,"EPHEMERIS_TYPE":0,"CLASSIFICATION_TYPE":"U","NORAD_CAT_ID":43648,"ELEMENT_SET_NO":999,"REV_AT_EPOCH":5040,"BSTAR":0,"MEAN_MOTION_DOT":-1.9e-7,"MEAN_MOTION_DDOT":0},{"OBJECT_NAME":"BEIDOU-3 G1 (C59)","OBJECT_ID":"2018-085A","EPOCH":"2026-03-13T07:30:13.029120","MEAN_MOTION":1.00265903,"ECCENTRICITY":0.00020953,"INCLINATION":2.8312,"RA_OF_ASC_NODE":100.0786,"ARG_OF_PERICENTER":8.4898,"MEAN_ANOMALY":314.822,"EPHEMERIS_TYPE":0,"CLASSIFICATION_TYPE":"U","NORAD_CAT_ID":43683,"ELEMENT_SET_NO":999,"REV_AT_EPOCH":2709,"BSTAR":0,"MEAN_MOTION_DOT":-2.79e-6,"MEAN_MOTION_DDOT":0}]
